[{"OBJECT_NAME":"OBJECT A","OBJECT_ID":"2023-189A","EPOCH":"2026-03-09T22:59:06.381600","MEAN_MOTION":15.32403275,"ECCENTRICITY":0.00094831,"INCLINATION":97.4458,"RA_OF_ASC_NODE":86.5997,"ARG_OF_PERICENTER":249.5377,"MEAN_ANOMALY":110.4847,"EPHEMERIS_TYPE":0,"CLASSIFICATION_TYPE":"U","NORAD_CAT_ID":58502,"ELEMENT_SET_NO":999,"REV_AT_EPOCH":12601,"BSTAR":0.00019874471,"MEAN_MOTION_DOT":6.146e-5,"MEAN_MOTION_DDOT":0},{"OBJECT_NAME":"STARLINK-34255","OBJECT_ID":"2025-192P","EPOCH":"2026-03-09T18:28:24.909600","MEAN_MOTION":15.30196109,"ECCENTRICITY":8.376e-5,"INCLINATION":53.1598,"RA_OF_ASC_NODE":232.1756,"ARG_OF_PERICENTER":84.1723,"MEAN_ANOMALY":275.9373,"EPHEMERIS_TYPE":0,"CLASSIFICATION_TYPE":"U","NORAD_CAT_ID":65417,"ELEMENT_SET_NO":999,"REV_AT_EPOCH":2939,"BSTAR":0.00041067785,"MEAN_MOTION_DOT":0.00011822,"MEAN_MOTION_DDOT":0}]
